NORAD_CAT_ID,OBJECT_NAME,OBJECT_TYPE,EPOCH,MEAN_MOTION,ECCENTRICITY,INCLINATION,RA_OF_ASC_NODE,ARG_OF_PERICENTER,MEAN_ANOMALY,BSTAR,MEAN_MOTION_DOT,MEAN_MOTION_DDOT,TLE_LINE0,TLE_LINE1,TLE_LINE2,SEMIMAJOR_AXIS,PERIOD,APOGEE,PERIGEE,DECAYED
49153.0,STARLINK-3072,PAYLOAD,2021-12-19 06:00:00,15.69820343,0.0003405,69.9977,216.6528,270.4861,284.8382,-0.0011761,-0.00138725,0.0,0 STARLINK-3072,1 49153U 21082Z   21353.25001157 -.00138725  00000-0 -11761-2 0  9996,2 49153  69.9977 216.6528 0003405 270.4861 284.8382 15.69820343 15193,6737.5480000000025,91.73,361.707,357.119,0.0
49153.0,STARLINK-3072,PAYLOAD,2021-12-19 14:00:01,15.69729503,0.0003359,69.9977,215.7159,264.3758,14.1009,0.00052293,0.00062629,0.0,0 STARLINK-3072,1 49153U 21082Z   21353.58334491  .00062629  00000-0  52293-3 0  9995,2 49153  69.9977 215.7159 0003359 264.3758  14.1009 15.69729503 15240,6737.808000000001,91.736,361.936,357.41,0.0
49153.0,STARLINK-3072,PAYLOAD,2021-12-19 22:00:00,15.69769754,0.0003456,69.9974,214.779,270.3726,91.2322,-0.00067259,-0.00079814,0.0,0 STARLINK-3072,1 49153U 21082Z   21353.91667824 -.00079814  00000-0 -67259-3 0  9995,2 49153  69.9974 214.7790 0003456 270.3726  91.2322 15.69769754 15298,6737.693,91.733,361.886,357.22900000000016,0.0
49153.0,STARLINK-3072,PAYLOAD,2021-12-20 06:00:00,15.69740553,0.0003554,69.9971,213.8418,270.4254,174.3032,-0.00020452,-0.00024548,0.0,0 STARLINK-3072,1 49153U 21082Z   21354.25001157 -.00024548  00000-0 -20452-3 0  9992,2 49153  69.9971 213.8418 0003554 270.4254 174.3032 15.69740553 15341,6737.776,91.735,362.036,357.247,0.0
49153.0,STARLINK-3072,PAYLOAD,2021-12-20 14:00:01,15.69744714,0.0003576,69.9973,212.9049,264.2898,263.5613,0.00060942,0.00073164,0.0,0 STARLINK-3072,1 49153U 21082Z   21354.58334491  .00073164  00000-0  60942-3 0  9992,2 49153  69.9973 212.9049 0003576 264.2898 263.5613 15.69744714 15396,6737.764,91.735,362.039,357.22,0.0
49153.0,STARLINK-3072,PAYLOAD,2021-12-20 22:00:01,15.69779416,0.0003538,69.9975,211.9678,270.2794,340.7844,0.00011943,0.00014087,0.0,0 STARLINK-3072,1 49153U 21082Z   21354.91668981  .00014087  00000-0  11943-3 0  9999,2 49153  69.9975 211.9678 0003538 270.2794 340.7844 15.69779416 15453,6737.665,91.733,361.914,357.146,0.0
49153.0,STARLINK-3072,PAYLOAD,2021-12-21 14:00:01,15.69681237,0.0003535,69.9973,210.0937,264.468,152.8333,0.00047054,0.00056179,0.0,0 STARLINK-3072,1 49153U 21082Z   21355.58334491  .00056179  00000-0  47054-3 0  9999,2 49153  69.9973 210.0937 0003535 264.4680 152.8333 15.69681237 15554,6737.946,91.738,362.193,357.42900000000014,0.0
49153.0,STARLINK-3072,PAYLOAD,2021-12-21 22:00:00,15.69696708,0.0003565,69.997,209.1568,270.624,229.7538,0.00039609,0.00047237,0.0,0 STARLINK-3072,1 49153U 21082Z   21355.91667824  .00047237  00000-0  39609-3 0  9997,2 49153  69.9970 209.1568 0003565 270.6240 229.7538 15.69696708  3685,6737.901999999999,91.737,362.169,357.365,0.0
49153.0,STARLINK-3072,PAYLOAD,2021-12-22 06:00:00,15.69751838,0.0003542,69.9967,208.2197,269.5747,313.8805,-0.00023504,-0.00028181,0.0,0 STARLINK-3072,1 49153U 21082Z   21356.25001157 -.00028181  00000-0 -23504-3 0  9992,2 49153  69.9967 208.2197 0003542 269.5747 313.8805 15.69751838 15662,6737.744000000002,91.734,361.996,357.223,0.0
49153.0,STARLINK-3072,PAYLOAD,2021-12-22 14:00:01,15.69768133,0.0003536,69.9971,207.2826,264.3268,42.2413,4.076e-05,4.66e-05,0.0,0 STARLINK-3072,1 49153U 21082Z   21356.58334491  .00004660  00000-0  40760-4 0  9996,2 49153  69.9971 207.2826 0003536 264.3268  42.2413 15.69768133 15719,6737.696999999999,91.733,361.945,357.18,0.0
49153.0,STARLINK-3072,PAYLOAD,2021-12-22 22:00:00,15.69728304,0.0003322,69.9973,206.3454,270.0857,119.646,0.00011235,0.00013209,0.0,0 STARLINK-3072,1 49153U 21082Z   21356.91667824  .00013209  00000-0  11235-3 0  9995,2 49153  69.9973 206.3454 0003322 270.0857 119.6460 15.69728304  3702,6737.811,91.736,361.915,357.43800000000016,0.0
49153.0,STARLINK-3072,PAYLOAD,2021-12-23 06:00:00,15.69759886,0.0003216,69.997,205.4084,268.6901,204.1451,-0.0001243,-0.0001503,0.0,0 STARLINK-3072,1 49153U 21082Z   21357.25001157 -.00015030  00000-0 -12430-3 0  9998,2 49153  69.9970 205.4084 0003216 268.6901 204.1451 15.69759886 15817,6737.721,91.734,361.753,357.4190000000001,0.0
49153.0,STARLINK-3072,PAYLOAD,2021-12-23 14:00:01,15.69790807,0.0003311,69.9974,204.4717,263.3814,292.5699,-0.00032831,-0.00039288,0.0,0 STARLINK-3072,1 49153U 21082Z   21357.58334491 -.00039288  00000-0 -32831-3 0  9992,2 49153  69.9974 204.4717 0003311 263.3814 292.5699 15.69790807  3678,6737.6330000000025,91.732,361.728,357.267,0.0
49153.0,STARLINK-3072,PAYLOAD,2021-12-23 22:00:00,15.69747772,0.0003158,70.0001,203.5345,271.3573,7.4991,-1.2903e-05,-1.752e-05,0.0,0 STARLINK-3072,1 49153U 21082Z   21357.91667824 -.00001752  00000-0 -12903-4 0  9992,2 49153  70.0001 203.5345 0003158 271.3573   7.4991 15.69747772 15921,6737.755999999999,91.734,361.74800000000016,357.49300000000005,0.0
49153.0,STARLINK-3072,PAYLOAD,2021-12-24 06:00:00,15.69757163,0.0003447,69.9969,202.5974,268.8838,93.3265,-0.00013802,-0.00016662,0.0,0 STARLINK-3072,1 49153U 21082Z   21358.25001157 -.00016662  00000-0 -13802-3 0  9995,2 49153  69.9969 202.5974 0003447 268.8838  93.3265 15.69757163 15972,6737.729,91.734,361.916,357.271,0.0
49153.0,STARLINK-3072,PAYLOAD,2021-12-24 14:00:01,15.69779974,0.0003348999999999,69.9973,201.6603,264.2792,181.0639,-0.00048311,-0.00057563,0.0,0 STARLINK-3072,1 49153U 21082Z   21358.58334491 -.00057563  00000-0 -48311-3 0  9999,2 49153  69.9973 201.6603 0003349 264.2792 181.0639 15.69779974  3685,6737.6640000000025,91.733,361.785,357.272,0.0
49153.0,STARLINK-3072,PAYLOAD,2021-12-24 22:00:00,15.69713211,0.0003216,69.9975,200.7233,271.7654,256.7235,0.00053412,0.00063939,0.0,0 STARLINK-3072,1 49153U 21082Z   21358.91667824  .00063939  00000-0  53412-3 0  9995,2 49153  69.9975 200.7233 0003216 271.7654 256.7235 15.69713211  3739,6737.855,91.737,361.886,357.55300000000005,0.0
49153.0,STARLINK-3072,PAYLOAD,2021-12-25 06:00:00,15.6977046,0.0003186,69.9974,199.7863,268.716,342.8632,-0.00038035,-0.0004541,0.0,0 STARLINK-3072,1 49153U 21082Z   21359.25001157 -.00045410  00000-0 -38035-3 0  9994,2 49153  69.9974 199.7863 0003186 268.7160 342.8632 15.69770460 16133,6737.691,91.733,361.702,357.409,0.0
49153.0,STARLINK-3072,PAYLOAD,2021-12-25 14:00:01,15.69503551,0.0003477,69.9996,198.8498,272.5184,62.0875,0.0032685,0.00405324,0.0,0 STARLINK-3072,1 49153U 21082Z   21359.58334491  .00405324  00000-0  32685-2 0  9996,2 49153  69.9996 198.8498 0003477 272.5184  62.0875 15.69503551 16183,6738.455,91.749,362.663,357.977,0.0
49153.0,STARLINK-3072,PAYLOAD,2021-12-25 22:00:00,15.69712351,0.0003417,69.9976,197.9125,271.9119,145.9615,0.00043833,0.00052362,0.0,0 STARLINK-3072,1 49153U 21082Z   21359.91667824  .00052362  00000-0  43833-3 0  9990,2 49153  69.9976 197.9125 0003417 271.9119 145.9615 15.69712351 16232,6737.857,91.737,362.024,357.42,0.0
49153.0,STARLINK-3072,PAYLOAD,2021-12-26 06:00:02,15.69741152,0.0003538,69.9973,196.9753,269.4458,231.5645,-3.9166e-05,-4.884e-05,0.0,0 STARLINK-3072,1 49153U 21082Z   21360.25002315 -.00004884  00000-0 -39166-4 0  9990,2 49153  69.9973 196.9753 0003538 269.4458 231.5645 15.69741152 16288,6737.775,91.735,362.023,357.256,0.0
49153.0,STARLINK-3072,PAYLOAD,2021-12-26 14:00:01,15.69773281,0.0003522,69.9976,196.0383,264.9797,319.0746,0.00012754,0.00015056,0.0,0 STARLINK-3072,1 49153U 21082Z   21360.58334491  .00015056  00000-0  12754-3 0  9993,2 49153  69.9976 196.0383 0003522 264.9797 319.0746 15.69773281 16349,6737.683000000001,91.733,361.921,357.175,0.0
49153.0,STARLINK-3072,PAYLOAD,2021-12-26 22:00:00,15.69746907,0.0003326,69.9978,195.1012,272.4138,34.7999,-8.4487e-05,-0.00010284,0.0,0 STARLINK-3072,1 49153U 21082Z   21360.91667824 -.00010284  00000-0 -84487-4 0  9992,2 49153  69.9978 195.1012 0003326 272.4138  34.7999 15.69746907 16396,6737.7580000000025,91.735,361.864,357.38199999999995,0.0
49153.0,STARLINK-3072,PAYLOAD,2021-12-27 14:00:01,15.69736844,0.0003419,69.998,193.2274,266.4683,206.9741,-0.00019642,-0.00023582,0.0,0 STARLINK-3072,1 49153U 21082Z   21361.58334491 -.00023582  00000-0 -19642-3 0  9992,2 49153  69.9980 193.2274 0003419 266.4683 206.9741 15.69736844  3684,6737.7869999999975,91.735,361.956,357.348,0.0
49153.0,STARLINK-3072,PAYLOAD,2021-12-27 22:00:00,15.69695889,0.0003503,69.9977,192.2905,273.4764,283.071,0.00052162,0.00062385,0.0,0 STARLINK-3072,1 49153U 21082Z   21361.91667824  .00062385  00000-0  52162-3 0  9994,2 49153  69.9977 192.2905 0003503 273.4764 283.0710 15.69695889  3687,6737.904,91.738,362.129,357.409,0.0
49153.0,STARLINK-3072,PAYLOAD,2021-12-28 06:00:00,15.69745346,0.0003481999999999,69.9973,191.3533,269.9494,9.7017,0.00010215,0.00011998,0.0,0 STARLINK-3072,1 49153U 21082Z   21362.25001157  .00011998  00000-0  10215-3 0  9990,2 49153  69.9973 191.3533 0003482 269.9494   9.7017 15.69745346 16609,6737.763000000001,91.735,361.974,357.282,0.0
49153.0,STARLINK-3072,PAYLOAD,2021-12-28 14:00:01,15.69786666,0.000352,69.9974,190.4163,267.1437,95.619,1.1365e-05,1.147e-05,0.0,0 STARLINK-3072,1 49153U 21082Z   21362.58334491  .00001147  00000-0  11365-4 0  9999,2 49153  69.9974 190.4163 0003520 267.1437  95.6190 15.69786666  3713,6737.644,91.732,361.881,357.13800000000015,0.0
49153.0,STARLINK-3072,PAYLOAD,2021-12-28 22:00:00,15.69778193,0.0003375,69.9975,189.4791,274.2566,171.6851,-0.00020535,-0.00024683,0.0,0 STARLINK-3072,1 49153U 21082Z   21362.91667824 -.00024683  00000-0 -20535-3 0  9995,2 49153  69.9975 189.4791 0003375 274.2566 171.6851 15.69778193  3679,6737.669,91.733,361.8080000000001,357.26,0.0
49153.0,STARLINK-3072,PAYLOAD,2021-12-29 06:00:02,15.69769067,0.0003264,69.9972,188.5421,270.8552,258.3019,-0.00024682,-0.00029596,0.0,0 STARLINK-3072,1 49153U 21082Z   21363.25002315 -.00029596  00000-0 -24682-3 0  9996,2 49153  69.9972 188.5421 0003264 270.8552 258.3019 15.69769067 16752,6737.695,91.733,361.759,357.361,0.0
